[{"OBJECT_NAME":"STARLINK-1807","OBJECT_ID":"2020-073AN","EPOCH":"2026-03-09T15:34:45.873120","MEAN_MOTION":15.23578372,"ECCENTRICITY":0.0005019,"INCLINATION":53.0589,"RA_OF_ASC_NODE":228.5688,"ARG_OF_PERICENTER":167.7565,"MEAN_ANOMALY":192.3554,"EPHEMERIS_TYPE":0,"CLASSIFICATION_TYPE":"U","NORAD_CAT_ID":46706,"ELEMENT_SET_NO":999,"REV_AT_EPOCH":29731,"BSTAR":0.0017212,"MEAN_MOTION_DOT":0.00041618,"MEAN_MOTION_DDOT":0},{"OBJECT_NAME":"HORS 5","OBJECT_ID":"2025-313AM","EPOCH":"2026-03-09T21:29:36.364128","MEAN_MOTION":15.22460599,"ECCENTRICITY":0.00102591,"INCLINATION":97.4003,"RA_OF_ASC_NODE":145.2415,"ARG_OF_PERICENTER":355.2078,"MEAN_ANOMALY":4.9058,"EPHEMERIS_TYPE":0,"CLASSIFICATION_TYPE":"U","NORAD_CAT_ID":67283,"ELEMENT_SET_NO":999,"REV_AT_EPOCH":1085,"BSTAR":0.0004492473,"MEAN_MOTION_DOT":0.00010348,"MEAN_MOTION_DDOT":0}]
